#aV2024 12 15  0  0  0.00000000     288 DD+AD WGS84 FIT  NGA
## 2345      0.00000000   300.00000000 60659 0.0000000000000
+   31     2  3  4  5  6  7  8  9 10 11 12 13 14 15 16 17 18
+         19 20 21 22 23 24 25 26 27 28 29 30 31 32  0  0  0
+          0  0  0  0  0  0  0  0  0  0  0  0  0  0  0  0  0
+          0  0  0  0  0  0  0  0  0  0  0  0  0  0  0  0  0
+          0  0  0  0  0  0  0  0  0  0  0  0  0  0  0  0  0
++         2  2  2  2  2  2  2  2  2  2  2  2  2  2  2  2  2
++         2  2  2  2  2  2  2  2  2  2  2  2  2  2  0  0  0
++         0  0  0  0  0  0  0  0  0  0  0  0  0  0  0  0  0
++         0  0  0  0  0  0  0  0  0  0  0  0  0  0  0  0  0
++         0  0  0  0  0  0  0  0  0  0  0  0  0  0  0  0  0
%c cc cc ccc ccc cccc cccc cccc cccc ccccc ccccc ccccc ccccc
%c cc cc ccc ccc cccc cccc cccc cccc ccccc ccccc ccccc ccccc
%f  0.0000000  0.000000000  0.00000000000  0.000000000000000
%f  0.0000000  0.000000000  0.00000000000  0.000000000000000
%i    0    0    0    0      0      0      0      0         0
%i    0    0    0    0      0      0      0      0         0
/*      NGA, ST. LOUIS,MO.                                  
/*   EPHEMERIS COMPUTED FROM 2 DAYS OF DATA                 
/*   EPOCHA v9 SMOOTHER                                     
/*   G2296 IERS2010 SATIGS SATAPC                           
*  2024 12 15  2 45  0.00000000
P  2  22422.066318  12557.651320   7911.336980   -291.767500                    
V  2   5588.603711   7726.241910 -29523.921708      0.088639                    
P  3  13927.005217   4209.498755  22055.675105    624.724572                    
V  3  -8133.223167  27137.322927     64.477097      0.086653                    
P  4  24863.020975   1564.819646   9442.878246    496.014034                    
V  4 -11217.669135   4602.220755  28672.539730      0.061658                    
P  5  -7291.774661 -19097.915240 -17098.442345   -196.036139                    
V  5   6508.101648 -20403.344288  20283.815470     -0.011429                    
P  6   1003.917804 -17945.998938  19586.678116    -44.900073                    
V  6  17394.934694  17531.703546  15342.273469     -0.286985                    
P  7  18387.370191   -182.518184 -18789.690981    -15.588344                    
V  7  16144.585679  18982.853685  14745.107929      0.012939                    
P  8  17822.025414   8422.670900 -18132.639145    438.660667                    
V  8 -21389.675600   7552.341053 -17189.534159      0.089730                    
P  9  25834.175807  -6223.634293   1008.426155    487.446037                    
V  9   -617.949551   3045.192432  31668.262223      0.161533                    
P 10 -10221.242579  23855.216831  -4487.842818   -234.868654                    
V 10   -422.546139  -6419.326216 -31878.613771     -0.153858                    
P 11 -10189.877998 -22405.516142  10097.982367   -752.621361                    
V 11  10090.310590   8109.670703  28227.473789     -0.003137                    
P 12 -12600.900091  -8877.957193  21348.570067   -558.414654                    
V 12  10063.108589 -25896.827732  -4720.246838     -0.023492                    
P 13  -9098.496299 -13636.050387 -21180.639307    689.991718                    
V 13  26097.836095  -3018.580759  -9137.978743      0.014161                    
P 14  12965.934974 -21575.189376  -8046.440013    560.351369                    
V 14     -5.258839  10877.983775 -29244.930966      0.076302                    
P 15 -18814.029423  -6572.888925 -18150.406331    239.697827                    
V 15  19661.262003 -10090.071000 -17082.666499      0.045471                    
P 16   1814.923201  22421.656479 -14108.082866   -103.037131                    
V 16  -8580.055931  15436.927681  24477.579273      0.095932                    
P 17  18360.563407 -13369.244291  14344.237285    518.664376                    
V 17  17461.344411  -1349.582099 -24116.217697     -0.160199                    
P 18 -16526.727536   2721.956340 -20636.373500   -660.284819                    
V 18 -17157.144845 -19785.851142  10892.330264      0.004614                    
P 19   8319.589870 -15062.941565  19967.182178    574.067182                    
V 19  25724.369869  -2147.647952 -12676.442490      0.042156                    
P 20  -1623.175407 -25832.676413  -6189.407015    367.887320                    
V 20   3561.066434  -7606.122095  30263.201429     -0.003144                    
P 21  21203.623442  16933.993222   1648.602469     96.087879                    
V 21    -44.609472   2437.752774 -30947.293225      0.026449                    
P 22   9513.049536 -24979.742812    475.396946    -86.400598                    
V 22   2446.408783    822.419791 -31531.093567     -0.024506                    
P 23 -15187.220971  13849.756628 -16648.234096    383.719185                    
V 23   3977.837300 -20944.957856 -21223.322307      0.077130                    
P 24 -21986.822482 -14430.628334   4550.966543   -473.371918                    
V 24  -2630.084246  -6624.625350 -30175.204557      0.030832                    
P 25 -16264.715827   6183.031489  19636.355677    498.085400                    
V 25   5396.648139 -25304.164765  12478.877352     -0.004344                    
P 26  -3233.792856  26028.036086  -2698.456879     -9.252047                    
V 26  -4653.776689   2389.135170  31054.458882     -0.141050                    
P 27   6429.115754  14174.811100 -21854.434417    -34.170852                    
V 27 -26162.933260   6684.958440  -2978.897169      0.003248                    
P 28  -2581.145512  17173.645220  20081.494218   -508.412037                    
V 28 -18932.964661 -17163.062752  12237.978285     -0.107272                    
P 29 -26348.361163   3765.972622    785.831572   -555.850237                    
V 29    632.980492  -2602.641619  31825.422548      0.031914                    
P 30  10068.112138 -12126.914953 -21215.228584   -261.095513                    
V 30  19223.454251  19538.518931  -2299.239656      0.081114                    
P 31   6270.434757  21451.189526  13818.502429   -219.950773                    
V 31 -14168.583961 -11614.005247  24390.967650      0.007326                    
P 32 -14161.080413  15385.990329  16479.657934   -558.859450                    
V 32 -20408.494358   3240.336625 -21048.211238      0.060828                    
EOF
